ORBCOMM FM114 [+]       
1 41179U 15081A   24034.59593408  .00001261  00000+0  31960-3 0  9994
2 41179  47.0004 122.9203 0001857 232.2287 127.8430 14.56263409431604
ORBCOMM FM119 [-]       
1 41180U 15081B   24034.97628063  .00000905  00000+0  24008-3 0  9993
2 41180  47.0021  30.3156 0002339 287.0779  72.9850 14.56254979432917
ORBCOMM FM105 [-]       
1 41181U 15081C   24035.17914051  .00000426  00000+0  16827-3 0  9990
2 41181  47.0036 347.5227 0002455 258.3726 101.6878 14.44213386428704
ORBCOMM FM110 [+]       
1 41182U 15081D   24034.36715788  .00000991  00000+0  25922-3 0  9990
2 41182  47.0018 123.4089 0001127   0.7045 359.3841 14.56260401431440
ORBCOMM FM118 [+]       
1 41183U 15081E   24034.61887409  .00001240  00000+0  31490-3 0  9994
2 41183  47.0038 122.5100 0001227   5.5659 354.5240 14.56260246431584
ORBCOMM FM113 [+]       
1 41185U 15081G   24034.99982656  .00000871  00000+0  23245-3 0  9995
2 41185  47.0022  29.6917 0001940 292.7351  67.3329 14.56246825432915
